ONEWEB-0412             
1 50489U 21132W   24068.48411705  .00000070  00000+0  14554-3 0  9993
2 50489  87.9212 140.8082 0002439  93.5289 266.6122 13.18684740112173
ONEWEB-0413             
1 50490U 21132X   24068.56474282 -.00000317  00000+0 -83675-3 0  9999
2 50490  87.9210 140.8057 0002163  91.0605 269.0775 13.18686459112129
ONEWEB-0414             
1 50491U 21132Y   24068.47462902  .00000099  00000+0  21960-3 0  9990
2 50491  87.9206 140.8060 0002414 100.8453 259.2951 13.18687501112146
ONEWEB-0417             
1 50492U 21132Z   24068.25489950  .00000012  00000+0 -21180-5 0  9991
2 50492  87.9213 140.8454 0002119 112.2464 247.8893 13.18687362112090
ONEWEB-0418             
1 50493U 21132AA  24068.26833364  .00000001  00000+0 -31232-4 0  9991
2 50493  87.9209 140.8514 0002305 116.5024 243.6344 13.18687798112154
ONEWEB-0419             
1 50494U 21132AB  24068.43352708  .00000083  00000+0  17667-3 0  9993
2 50494  87.9207 140.8378 0001903 115.6188 244.5141 13.18687753112094
ONEWEB-0420             
1 50495U 21132AC  24068.47621372  .00000093  00000+0  20411-3 0  9996
2 50495  87.9205 140.8378 0001915  92.5415 267.5937 13.18684956112092
ONEWEB-0421             
1 50496U 21132AD  24068.46989005  .00000119  00000+0  26885-3 0  9996
2 50496  87.9213 140.7969 0002428  96.8455 263.2954 13.18687630112137
